{
    "links": {
        "self": "http://www.neowsapp.com/rest/v1/neo/3150775?api_key=iIulBulltgU6a56xZRHN4H3l9WmuAYTsLGpBGhQ2"
    },
    "id": "3150775",
    "neo_reference_id": "3150775",
    "name": "(2003 EP16)",
    "designation": "2003 EP16",
    "nasa_jpl_url": "http://ssd.jpl.nasa.gov/sbdb.cgi?sstr=3150775",
    "absolute_magnitude_h": 23.0,
    "estimated_diameter": {
        "kilometers": {
            "estimated_diameter_min": 0.0667659413,
            "estimated_diameter_max": 0.1492931834
        },
        "meters": {
            "estimated_diameter_min": 66.7659413495,
            "estimated_diameter_max": 149.2931834393
        },
        "miles": {
            "estimated_diameter_min": 0.0414864197,
            "estimated_diameter_max": 0.0927664547
        },
        "feet": {
            "estimated_diameter_min": 219.0483710172,
            "estimated_diameter_max": 489.807047955
        }
    },
    "is_potentially_hazardous_asteroid": false,
    "close_approach_data": [
        {
            "close_approach_date": "2003-02-06",
            "close_approach_date_full": "2003-Feb-06 10:15",
            "epoch_date_close_approach": 1044526500000,
            "relative_velocity": {
                "kilometers_per_second": "6.2753340023",
                "kilometers_per_hour": "22591.2024081554",
                "miles_per_hour": "14037.2946296675"
            },
            "miss_distance": {
                "astronomical": "0.1001240573",
                "lunar": "38.9482582897",
                "kilometers": "14978345.707837951",
                "miles": "9307112.4463116838"
            },
            "orbiting_body": "Earth"
        }
    ],
    "orbital_data": {
        "orbit_id": "11",
        "orbit_determination_date": "2017-04-06 09:14:16",
        "first_observation_date": "2003-03-09",
        "last_observation_date": "2003-03-30",
        "data_arc_in_days": 21,
        "observations_used": 30,
        "orbit_uncertainty": "7",
        "minimum_orbit_intersection": ".0974209",
        "jupiter_tisserand_invariant": "4.072",
        "epoch_osculation": "2459000.5",
        "eccentricity": ".3960728343846279",
        "semi_major_axis": "1.718380199491798",
        "inclination": "8.497773960945151",
        "ascending_node_longitude": "163.0380942712704",
        "orbital_period": "822.7678564629388",
        "perihelion_distance": "1.037776483328659",
        "perihelion_argument": "312.8417849233387",
        "aphelion_distance": "2.398983915654937",
        "perihelion_time": "2459238.499115563723",
        "mean_anomaly": "255.86408738514",
        "mean_motion": ".4375474773013523",
        "equinox": "J2000",
        "orbit_class": {
            "orbit_class_type": "AMO",
            "orbit_class_description": "Near-Earth asteroid orbits similar to that of 1221 Amor",
            "orbit_class_range": "1.017 AU < q (perihelion) < 1.3 AU"
        }
    },
    "is_sentry_object": false
}